STARLINK-31689          
1 59567U 24076D   26068.18335281 -.00002056  00000+0 -65235-4 0  9993
2 59567  42.9995   8.5445 0000602 278.6438  81.4346 15.27576900106469
REAL                    
1 64875U 25154G   26068.72233414  .00022901  00000+0  82904-3 0  9994
2 64875  97.4133 137.2581 0001853 118.5876 241.5550 15.28408058 34830
